start=new Date('2023-06-23T00:00:00.000Z').valueOf();
sats=[{"CENTER_NAME":"EARTH","EPOCH":"2023-06-22T12:37:25.802976","MEAN_ANOMALY":"252.6239","OBJECT_ID":"2022-077AU","MEAN_MOTION":"15.01263374","SITE":"AFWTR","FILE":"3940060","ECCENTRICITY":"0.00009370","TLE_LINE2":"2 53085  97.6597 354.5234 0000937 107.5087 252.6239 15.01263374 52793","INCLINATION":"97.6597","BSTAR":"0.00009464500000","MEAN_ELEMENT_THEORY":"SGP4","RCS_SIZE":"LARGE","OBJECT_TYPE":"PAYLOAD","EPHEMERIS_TYPE":"0","MEAN_MOTION_DDOT":"0.0000000000000","ARG_OF_PERICENTER":"107.5087","OBJECT_NAME":"STARLINK-4324","NORAD_CAT_ID":"53085","LAUNCH_DATE":"2022-07-11","PERIAPSIS":"562.351","COUNTRY_CODE":"US","TIME_SYSTEM":"UTC","REV_AT_EPOCH":"5279","GP_ID":"234460107","APOAPSIS":"563.652","MEAN_MOTION_DOT":"0.00001157","CLASSIFICATION_TYPE":"U","RA_OF_ASC_NODE":"354.5234","PERIOD":"95.919","REF_FRAME":"TEME","TLE_LINE1":"1 53085U 22077AU  23173.52599309  .00001157  00000-0  94645-4 0  9993","DECAY_DATE":null,"ELEMENT_SET_NO":"999","SEMIMAJOR_AXIS":"6941.136"},{"EPOCH":"2023-06-22T01:30:33.918048","CENTER_NAME":"EARTH","MEAN_ANOMALY":"262.8332","SITE":"AFWTR","OBJECT_ID":"2022-077AV","MEAN_MOTION":"15.01260800","TLE_LINE2":"2 53086  97.6589 354.0570 0002625  97.3191 262.8332 15.01260800 52722","FILE":"3939454","ECCENTRICITY":"0.00026250","BSTAR":"0.00005575300000","INCLINATION":"97.6589","MEAN_ELEMENT_THEORY":"SGP4","RCS_SIZE":"LARGE","EPHEMERIS_TYPE":"0","OBJECT_TYPE":"PAYLOAD","MEAN_MOTION_DDOT":"0.0000000000000","ARG_OF_PERICENTER":"97.3191","LAUNCH_DATE":"2022-07-11","NORAD_CAT_ID":"53086","OBJECT_NAME":"STARLINK-4318","COUNTRY_CODE":"US","TIME_SYSTEM":"UTC","PERIAPSIS":"561.187","GP_ID":"234446536","REV_AT_EPOCH":"5272","APOAPSIS":"564.831","MEAN_MOTION_DOT":"0.00000657","CLASSIFICATION_TYPE":"U","PERIOD":"95.919","RA_OF_ASC_NODE":"354.0570","TLE_LINE1":"1 53086U 22077AV  23173.06289257  .00000657  00000-0  55753-4 0  9992","ELEMENT_SET_NO":"999","DECAY_DATE":null,"REF_FRAME":"TEME","SEMIMAJOR_AXIS":"6941.144"},{"MEAN_ANOMALY":"194.0855","EPOCH":"2023-06-22T01:27:53.580384","CENTER_NAME":"EARTH","TLE_LINE2":"2 53087  97.6599 354.0493 0001657 166.0415 194.0855 15.01260109 52723","FILE":"3939454","ECCENTRICITY":"0.00016570","SITE":"AFWTR","OBJECT_ID":"2022-077AW","MEAN_MOTION":"15.01260109","RCS_SIZE":"LARGE","MEAN_ELEMENT_THEORY":"SGP4","BSTAR":"0.00010005000000","INCLINATION":"97.6599","MEAN_MOTION_DDOT":"0.0000000000000","ARG_OF_PERICENTER":"166.0415","OBJECT_TYPE":"PAYLOAD","EPHEMERIS_TYPE":"0","LAUNCH_DATE":"2022-07-11","OBJECT_NAME":"STARLINK-4329","NORAD_CAT_ID":"53087","MEAN_MOTION_DOT":"0.00001226","APOAPSIS":"564.162","GP_ID":"234447046","REV_AT_EPOCH":"5272","TIME_SYSTEM":"UTC","COUNTRY_CODE":"US","PERIAPSIS":"561.861","TLE_LINE1":"1 53087U 22077AW  23173.06103681  .00001226  00000-0  10005-3 0  9992","ELEMENT_SET_NO":"999","DECAY_DATE":null,"REF_FRAME":"TEME","PERIOD":"95.919","RA_OF_ASC_NODE":"354.0493","CLASSIFICATION_TYPE":"U","SEMIMAJOR_AXIS":"6941.147"},{"MEAN_ELEMENT_THEORY":"SGP4","BSTAR":"0.00005215900000","INCLINATION":"97.6595","RCS_SIZE":"LARGE","EPHEMERIS_TYPE":"0","OBJECT_TYPE":"PAYLOAD","ARG_OF_PERICENTER":"64.5703","MEAN_MOTION_DDOT":"0.0000000000000","EPOCH":"2023-06-22T09:25:08.295168","CENTER_NAME":"EARTH","MEAN_ANOMALY":"295.5776","TLE_LINE2":"2 53088  97.6595 354.3885 0002468  64.5703 295.5776 15.01258481 52775","ECCENTRICITY":"0.00024680","FILE":"3939724","SITE":"AFWTR","OBJECT_ID":"2022-077AX","MEAN_MOTION":"15.01258481","CLASSIFICATION_TYPE":"U","TLE_LINE1":"1 53088U 22077AX  23173.39245712  .00000611  00000-0  52159-4 0  9995","ELEMENT_SET_NO":"999","DECAY_DATE":null,"REF_FRAME":"TEME","PERIOD":"95.920","RA_OF_ASC_NODE":"354.3885","SEMIMAJOR_AXIS":"6941.152","LAUNCH_DATE":"2022-07-11","OBJECT_NAME":"STARLINK-4333","NORAD_CAT_ID":"53088","GP_ID":"234452701","REV_AT_EPOCH":"5277","TIME_SYSTEM":"UTC","COUNTRY_CODE":"US","PERIAPSIS":"561.303","MEAN_MOTION_DOT":"0.00000611","APOAPSIS":"564.730"},{"MEAN_ANOMALY":"264.0984","CENTER_NAME":"EARTH","EPOCH":"2023-06-22T18:46:10.802208","ECCENTRICITY":"0.00007490","FILE":"3940057","TLE_LINE2":"2 53132  53.2171 302.4774 0000749  96.0094 264.0984 15.08851450 52254","OBJECT_ID":"2022-083A","MEAN_MOTION":"15.08851450","SITE":"AFETR","RCS_SIZE":"LARGE","MEAN_ELEMENT_THEORY":"SGP4","INCLINATION":"53.2171","BSTAR":"0.00021345000000","ARG_OF_PERICENTER":"96.0094","MEAN_MOTION_DDOT":"0.0000000000000","EPHEMERIS_TYPE":"0","OBJECT_TYPE":"PAYLOAD","NORAD_CAT_ID":"53132","OBJECT_NAME":"STARLINK-4063","LAUNCH_DATE":"2022-07-17","MEAN_MOTION_DOT":"0.00003112","APOAPSIS":"540.229","REV_AT_EPOCH":"5225","GP_ID":"234460957","PERIAPSIS":"539.192","COUNTRY_CODE":"US","TIME_SYSTEM":"UTC","REF_FRAME":"TEME","DECAY_DATE":null,"TLE_LINE1":"1 53132U 22083A   23173.78206947  .00003112  00000-0  21345-3 0  9993","ELEMENT_SET_NO":"999","RA_OF_ASC_NODE":"302.4774","PERIOD":"95.437","CLASSIFICATION_TYPE":"U","SEMIMAJOR_AXIS":"6917.845"},{"LAUNCH_DATE":"2022-07-17","OBJECT_NAME":"STARLINK-4154","NORAD_CAT_ID":"53133","APOAPSIS":"540.163","MEAN_MOTION_DOT":"0.00002705","TIME_SYSTEM":"UTC","COUNTRY_CODE":"US","PERIAPSIS":"539.302","GP_ID":"234460968","REV_AT_EPOCH":"5223","PERIOD":"95.437","RA_OF_ASC_NODE":"302.9936","DECAY_DATE":null,"TLE_LINE1":"1 53133U 22083B   23173.66799385  .00002705  00000-0  18791-3 0  9992","ELEMENT_SET_NO":"999","REF_FRAME":"TEME","CLASSIFICATION_TYPE":"U","SEMIMAJOR_AXIS":"6917.868","MEAN_ANOMALY":"310.4247","EPOCH":"2023-06-22T16:01:54.668640","CENTER_NAME":"EARTH","SITE":"AFETR","MEAN_MOTION":"15.08844207","OBJECT_ID":"2022-083B","TLE_LINE2":"2 53133  53.2167 302.9936 0000622  49.6799 310.4247 15.08844207 52239","FILE":"3940041","ECCENTRICITY":"0.00006220","RCS_SIZE":"LARGE","BSTAR":"0.00018791000000","INCLINATION":"53.2167","MEAN_ELEMENT_THEORY":"SGP4","ARG_OF_PERICENTER":"49.6799","MEAN_MOTION_DDOT":"0.0000000000000","OBJECT_TYPE":"PAYLOAD","EPHEMERIS_TYPE":"0"},{"EPHEMERIS_TYPE":"0","OBJECT_TYPE":"PAYLOAD","MEAN_MOTION_DDOT":"0.0000000000000","ARG_OF_PERICENTER":"93.1460","MEAN_ELEMENT_THEORY":"SGP4","INCLINATION":"53.2175","BSTAR":"0.00037411000000","RCS_SIZE":"LARGE","FILE":"3940041","ECCENTRICITY":"0.00010290","TLE_LINE2":"2 53134  53.2175 303.0383 0001029  93.1460 266.9650 15.08833005 52235","MEAN_MOTION":"15.08833005","OBJECT_ID":"2022-083C","SITE":"AFETR","CENTER_NAME":"EARTH","EPOCH":"2023-06-22T15:46:01.776000","MEAN_ANOMALY":"266.9650","SEMIMAJOR_AXIS":"6917.902","CLASSIFICATION_TYPE":"U","REF_FRAME":"TEME","ELEMENT_SET_NO":"999","TLE_LINE1":"1 53134U 22083C   23173.65696500  .00005670  00000-0  37411-3 0  9991","DECAY_DATE":null,"RA_OF_ASC_NODE":"303.0383","PERIOD":"95.438","REV_AT_EPOCH":"5223","GP_ID":"234460966","PERIAPSIS":"539.055","COUNTRY_CODE":"US","TIME_SYSTEM":"UTC","MEAN_MOTION_DOT":"0.00005670","APOAPSIS":"540.479","OBJECT_NAME":"STARLINK-4150","NORAD_CAT_ID":"53134","LAUNCH_DATE":"2022-07-17"},{"MEAN_MOTION_DOT":"0.00000665","APOAPSIS":"540.424","GP_ID":"234440987","REV_AT_EPOCH":"5208","COUNTRY_CODE":"US","TIME_SYSTEM":"UTC","PERIAPSIS":"539.055","LAUNCH_DATE":"2022-07-17","OBJECT_NAME":"STARLINK-4023","NORAD_CAT_ID":"53135","SEMIMAJOR_AXIS":"6917.874","TLE_LINE1":"1 53135U 22083D   23172.67071492  .00000665  00000-0  59856-4 0  9997","DECAY_DATE":null,"ELEMENT_SET_NO":"999","REF_FRAME":"TEME","PERIOD":"95.437","RA_OF_ASC_NODE":"307.4691","CLASSIFICATION_TYPE":"U","TLE_LINE2":"2 53135  53.2176 307.4691 0000989  84.6415 275.4690 15.08841957 52083","ECCENTRICITY":"0.00009890","FILE":"3939230","SITE":"AFETR","OBJECT_ID":"2022-083D","MEAN_MOTION":"15.08841957","MEAN_ANOMALY":"275.4690","EPOCH":"2023-06-21T16:05:49.769088","CENTER_NAME":"EARTH","MEAN_MOTION_DDOT":"0.0000000000000","ARG_OF_PERICENTER":"84.6415","EPHEMERIS_TYPE":"0","OBJECT_TYPE":"PAYLOAD","RCS_SIZE":"LARGE","MEAN_ELEMENT_THEORY":"SGP4","BSTAR":"0.00005985600000","INCLINATION":"53.2176"},{"RCS_SIZE":"LARGE","BSTAR":"0.00005526000000","INCLINATION":"53.2177","MEAN_ELEMENT_THEORY":"SGP4","MEAN_MOTION_DDOT":"0.0000000000000","ARG_OF_PERICENTER":"75.8274","OBJECT_TYPE":"PAYLOAD","EPHEMERIS_TYPE":"0","MEAN_ANOMALY":"284.2834","EPOCH":"2023-06-22T09:29:46.545504","CENTER_NAME":"EARTH","SITE":"AFETR","MEAN_MOTION":"15.08835485","OBJECT_ID":"2022-083E","TLE_LINE2":"2 53136  53.2177 304.2118 0001039  75.8274 284.2834 15.08835485 52195","ECCENTRICITY":"0.00010390","FILE":"3939753","PERIOD":"95.438","RA_OF_ASC_NODE":"304.2118","ELEMENT_SET_NO":"999","TLE_LINE1":"1 53136U 22083E   23173.39567761  .00000592  00000-0  55260-4 0  9991","DECAY_DATE":null,"REF_FRAME":"TEME","CLASSIFICATION_TYPE":"U","SEMIMAJOR_AXIS":"6917.894","LAUNCH_DATE":"2022-07-17","OBJECT_NAME":"STARLINK-4152","NORAD_CAT_ID":"53136","APOAPSIS":"540.478","MEAN_MOTION_DOT":"0.00000592","TIME_SYSTEM":"UTC","COUNTRY_CODE":"US","PERIAPSIS":"539.040","GP_ID":"234454107","REV_AT_EPOCH":"5219"},{"SITE":"AFETR","MEAN_MOTION":"15.08847946","OBJECT_ID":"2022-083F","TLE_LINE2":"2 53137  53.2177 303.0544 0000824  75.9388 284.1696 15.08847946 52239","ECCENTRICITY":"0.00008240","FILE":"3940043","MEAN_ANOMALY":"284.1696","EPOCH":"2023-06-22T15:40:42.802752","CENTER_NAME":"EARTH","MEAN_MOTION_DDOT":"0.0000000000000","ARG_OF_PERICENTER":"75.9388","OBJECT_TYPE":"PAYLOAD","EPHEMERIS_TYPE":"0","RCS_SIZE":"LARGE","BSTAR":"0.00027725000000","INCLINATION":"53.2177","MEAN_ELEMENT_THEORY":"SGP4","APOAPSIS":"540.291","MEAN_MOTION_DOT":"0.00004128","COUNTRY_CODE":"US","TIME_SYSTEM":"UTC","PERIAPSIS":"539.151","GP_ID":"234460995","REV_AT_EPOCH":"5223","LAUNCH_DATE":"2022-07-17","NORAD_CAT_ID":"53137","OBJECT_NAME":"STARLINK-4145","SEMIMAJOR_AXIS":"6917.856","PERIOD":"95.437","RA_OF_ASC_NODE":"303.0544","DECAY_DATE":null,"TLE_LINE1":"1 53137U 22083F   23173.65327318  .00004128  00000-0  27725-3 0  9996","ELEMENT_SET_NO":"999","REF_FRAME":"TEME","CLASSIFICATION_TYPE":"U"}];
